{
  "norad_id": 43108,
  "name": "BEIDOU-3 M8",
  "history": [
    {
      "epoch": "2026-03-26T01:37:39.698112Z",
      "apogee_km": 21535.08897545282,
      "perigee_km": 21521.036529505465,
      "latitude_deg": -1.2202653283203337e-05,
      "longitude_deg": 97.27488224452264,
      "height_km": 21525.41265044412,
      "semi_major_axis_km": 27906.199752479144,
      "eccentricity": 0.00025178,
      "inclination_deg": 54.3941,
      "raan_deg": 305.1962,
      "arg_perigee_deg": 294.59,
      "mean_anomaly_deg": 65.4209,
      "mean_motion_rev_day": 1.86230888
    }
  ]
}